              M50 Cartesian                         J2K Cartesian  
    -----------------------------------       --------------------------------
     X    =       12894304.80                 X    =         3927439.88
     Y    =       -6604327.15  feet           Y    =        -1969063.91  meter
     Z    =       16859729.94                 Z    =         5157930.79
     XDOT =      15871.874851                 XDOT =        4779.759062
     YDOT =      18955.174297  feet/sec       YDOT =        5831.311679  meter/sec
     ZDOT =      -4712.387066                 ZDOT =       -1412.976638
 
              TDR Cartesian                         TDR Cartesian  
    -----------------------------------       --------------------------------
     X    =      -13113065.03                 X    =        -3996862.22
     Y    =        5926124.42  feet           Y    =         1806282.72  meter
     Z    =       16942824.50                 Z    =         5164172.91
     XDOT =     -14458.177124                 XDOT =       -4406.852387
     YDOT =     -18803.065570  feet/sec       YDOT =       -5731.174386  meter/sec
     ZDOT =      -4612.021120                 ZDOT =       -1405.744037
  
  
    The mean element set is posted at the UTC for which position is
    just north of the next ascending node relative to the above
    vector time
 
 
    TWO LINE MEAN ELEMENT SET
  
    ISS
    1 25544U 98067A   16064.08922496  .00016717  00000-0  10270-3 0  9048
    2 25544  51.6387 222.1464 0002987 197.3421 162.7630 15.54369183 28635
  
  
    Satellite: ISS
    Catalog Number: 25544
    Epoch time:      16064.08922496   =   yrday.fracday
    Element set:     904
    Inclination:       51.6387  deg
    RA of node:       222.1464  deg
    Eccentricity:     .0002987     
    Arg of perigee:   197.3421  deg
    Mean anomaly:     162.7630  deg
    Mean motion:   15.54369183  rev/day
    Decay rate:    1.67170E-04  rev/day^2
    Epoch rev:            2863
    Checksum:              327
 
 
    Coasting Arc #6 (Orbit 2877)
    ---------------------------------------
 
    Vector Time (GMT): 2016/065/01:02:30.000
    Vector Time (MET): N/A
    Weight (LBS)     : 890989.4
 
              M50 Cartesian                         M50 Keplerian  
    -----------------------------------       --------------------------------
     X    =       -5103015.55                 A    =         6780178.62  meter
     Y    =         638110.61  meter          E    =           .0009681
     Z    =       -4428497.21                 I    =           51.40797
     XDOT =      -3598.976258                 Wp   =          128.36520
     YDOT =      -5904.553816  meter/sec      RA   =          216.28299  deg
     ZDOT =       3295.364624                 TA   =          175.03467
                                              MA   =          175.02506
                                              Ha   =            220.489  n.mi
                                              Hp   =            214.496
 
              M50 Cartesian                         J2K Cartesian  
    -----------------------------------       --------------------------------
     X    =      -16742177.02                 X    =        -5088260.40
     Y    =        2093538.76  feet           Y    =          581127.41  meter
     Z    =      -14529190.33                 Z    =        -4453250.21
     XDOT =     -11807.664889                 XDOT =       -3548.689804
     YDOT =     -19371.895721  feet/sec       YDOT =       -5944.518495  meter/sec
     ZDOT =      10811.563727                 ZDOT =        3278.004638
 
              TDR Cartesian                         TDR Cartesian  
    -----------------------------------       --------------------------------
     X    =       16711554.67                 X    =         5093681.86
     Y    =       -1507671.70  feet           Y    =         -459538.33  meter
     Z    =      -14636653.78                 Z    =        -4461252.07
     XDOT =      11081.014245                 XDOT =        3377.493142
     YDOT =      18556.507671  feet/sec       YDOT =        5656.023538  meter/sec
     ZDOT =      10737.216456                 ZDOT =        3272.703576
  
  
    The mean element set is posted at the UTC for which position is
    just north of the next ascending node relative to the above
    vector time
 
 
    TWO LINE MEAN ELEMENT SET
  
    ISS
    1 25544U 98067A   16065.05359421  .00016717  00000-0  10270-3 0  9059
    2 25544  51.6387 217.3363 0002908 202.5748 157.5277 15.54377923 28789
  
  
    Satellite: ISS
    Catalog Number: 25544
    Epoch time:      16065.05359421   =   yrday.fracday
    Element set:     905
    Inclination:       51.6387  deg
    RA of node:       217.3363  deg
    Eccentricity:     .0002908     
    Arg of perigee:   202.5748  deg
    Mean anomaly:     157.5277  deg
    Mean motion:   15.54377923  rev/day
    Decay rate:    1.67170E-04  rev/day^2
    Epoch rev:            2878
    Checksum:              332
 
 
    Coasting Arc #7 (Orbit 2879)
    ---------------------------------------
 
    Vector Time (GMT): 2016/065/04:09:13.568
    Vector Time (MET): N/A
    Weight (LBS)     : 890679.4
 
              M50 Cartesian                         M50 Keplerian  
    -----------------------------------       --------------------------------
     X    =       -5410991.32                 A    =         6782974.17  meter
     Y    =         139948.72  meter          E    =           .0005655
     Z    =       -4094120.30                 I    =           51.41759
     XDOT =      -3035.452401                 Wp   =          137.85578
     YDOT =      -5914.376040  meter/sec      RA   =          215.63426  deg
     ZDOT =       3808.588206                 TA   =          171.63707
                                              MA   =          171.62764
                                              Ha   =            220.449  n.mi
                                              Hp   =            216.220
 
              M50 Cartesian                         J2K Cartesian  
    -----------------------------------       --------------------------------
     X    =      -17752596.19                 X    =        -5392266.95
     Y    =         459149.34  feet           Y    =           79543.74  meter
     Z    =      -13432153.21                 Z    =        -4120359.65
     XDOT =      -9958.833335                 XDOT =       -2987.590969
     YDOT =     -19404.120866  feet/sec       YDOT =       -5948.052529  meter/sec
     ZDOT =      12495.368129                 ZDOT =        3793.959759
 
              TDR Cartesian                         TDR Cartesian  
    -----------------------------------       --------------------------------
     X    =       12212187.32                 X    =         3722274.69
     Y    =      -12773292.39  feet           Y    =        -3893299.52  meter
     Z    =      -13545985.09                 Z    =        -4128816.25
     XDOT =      19864.085652                 XDOT =        6054.573307
     YDOT =       5802.923337  feet/sec       YDOT =        1768.731033  meter/sec
     ZDOT =      12432.867677                 ZDOT =        3789.538068
  
  
    The mean element set is posted at the UTC for which position is
    just north of the next ascending node relative to the above
    vector time
 
 
    TWO LINE MEAN ELEMENT SET
  
    ISS
    1 25544U 98067A   16065.18217601  .00016717  00000-0  10270-3 0  9067
    2 25544  51.6410 216.6966 0003710 242.9121 117.1654 15.53831800 28804
  
  
    Satellite: ISS
    Catalog Number: 25544
    Epoch time:      16065.18217601   =   yrday.fracday
    Element set:     906
    Inclination:       51.6410  deg
    RA of node:       216.6966  deg
    Eccentricity:     .0003710     
    Arg of perigee:   242.9121  deg
    Mean anomaly:     117.1654  deg
    Mean motion:   15.53831800  rev/day
    Decay rate:    1.67170E-04  rev/day^2
    Epoch rev:            2880
    Checksum:              285
 
 
    Coasting Arc #8 (Orbit 2895)
    ---------------------------------------
 
    Vector Time (GMT): 2016/066/04:09:13.568
    Vector Time (MET): N/A
    Weight (LBS)     : 890679.4
 
              M50 Cartesian                         M50 Keplerian  
    -----------------------------------       --------------------------------
     X    =        6068191.19                 A    =         6786593.74  meter
     Y    =         926334.33  meter          E    =           .0010313
     Z    =        2881244.92                 I    =           51.45601
     XDOT =       1544.541267                 Wp   =          109.46228
     YDOT =       5576.550492  meter/sec      RA   =          210.63858  deg
     ZDOT =      -5034.489042                 TA   =           37.63216
                                              MA   =           37.56004
                                              Ha   =            220.292  n.mi
                                              Hp   =            216.346
 
              M50 Cartesian                         J2K Cartesian  
    -----------------------------------       --------------------------------
     X    =       19908763.74                 X    =         6043386.09
     Y    =        3039154.63  feet           Y    =          994054.49  meter
     Z    =        9452903.29                 Z    =         2910661.80
     XDOT =       5067.392607                 XDOT =        1506.523050
     YDOT =      18295.769332  feet/sec       YDOT =        5593.609471  meter/sec
     ZDOT =     -16517.352499                 ZDOT =       -5027.079114
 
